#aV2014  6  8  0  0  0.00000000     288 DD+AD WGS84 FIT  NGA
## 1796      0.00000000   300.00000000 56816 0.0000000000000
+   31     1  2  3  4  5  6  7  8 10 11 12 13 14 15 16 17 18
+         19 20 21 22 23 24 25 26 27 28 29 30 31 32  0  0  0
+          0  0  0  0  0  0  0  0  0  0  0  0  0  0  0  0  0
+          0  0  0  0  0  0  0  0  0  0  0  0  0  0  0  0  0
+          0  0  0  0  0  0  0  0  0  0  0  0  0  0  0  0  0
++         2  2  2  2  2  2  2  2  2  2  2  2  2  2  2  2  2
++         2  2  2  2  2  2  2  2  2  2  2  2  2  2  0  0  0
++         0  0  0  0  0  0  0  0  0  0  0  0  0  0  0  0  0
++         0  0  0  0  0  0  0  0  0  0  0  0  0  0  0  0  0
++         0  0  0  0  0  0  0  0  0  0  0  0  0  0  0  0  0
%c cc cc ccc ccc cccc cccc cccc cccc ccccc ccccc ccccc ccccc
%c cc cc ccc ccc cccc cccc cccc cccc ccccc ccccc ccccc ccccc
%f  0.0000000  0.000000000  0.00000000000  0.000000000000000
%f  0.0000000  0.000000000  0.00000000000  0.000000000000000
%i    0    0    0    0      0      0      0      0         0
%i    0    0    0    0      0      0      0      0         0
/*      NGA, ST. LOUIS,MO.                                  
/*   EPHEMERIS COMPUTED FROM  1 DAYS OF DATA                
/*   EPOCHA SMOOTHER                                       
/* CCCCCCCCCCCCCCCCCCCCCCCCCCCCCCCCCCCCCCCCCCCCCCCCCCCCCCCCC
*  2014  6  8 15 45  0.00000000
P  1 -18828.847872 -13373.466558 -13275.455049     14.709261                    
V  1  16837.494181   1302.097911 -25109.497981      0.010611                    
P  2  -5106.041663  15086.396929  21516.401568    499.964748                    
V  2 -26259.202722  -5160.731034  -3139.513088      0.021596                    
P  3   2091.459015 -22585.865968 -14251.610366    375.397760                    
V  3  11514.864006 -13152.285346  23600.104970      0.048195                    
P  4 -19283.332388   8304.111885  16091.307162      7.146354                    
V  4 -20179.708750  -6188.214599 -20363.144692      0.002543                    
P  5    576.642832  24417.949162  10192.441886   -367.209141                    
V  5  -7061.253562 -11405.557528  27792.026319      0.027362                    
P  6 -17399.372900   9243.640337  17796.291420      7.791180                    
V  6 -21873.449954  -5998.982378 -18271.510858     -0.007775                    
P  7 -25996.474690  -6278.810566    559.015267    355.388067                    
V  7   1072.558069  -1946.234300  31790.936281      0.042327                    
P  8 -25404.521363  -2970.870477  -8088.079647     14.074797                    
V  8  -9405.576298  -4321.104187  29942.116211      0.000922                    
P 10 -11598.650815  11998.772802  20233.523922   -128.905271                    
V 10  -9393.016187 -24948.259067   9675.968147     -0.015200                    
P 11 -12320.592020 -14230.710054 -19295.685628   -495.645676                    
V 11  23347.901748  -4588.162422 -11620.785980     -0.030921                    
P 12  11164.677416  23376.248135   6299.768641    210.230446                    
V 12    608.129584   8181.551298 -30868.198181      0.024872                    
P 13 -17014.466865  -2799.907724  20118.204354     -8.416996                    
V 13  18400.834310 -18021.774721  12806.355929     -0.038585                    
P 14  21432.158662 -13077.572250  -8204.286931    165.473303                    
V 14  -5946.582611   9303.682630 -29715.057759     -0.034876                    
P 15   3182.334863  18208.670677 -19025.215908   -184.134575                    
V 15 -16698.957227  17633.061795  14415.360220     -0.021888                    
P 16    458.459171 -24243.431127  10343.507881   -214.212909                    
V 16   5427.495922  12305.254315  28804.702259      0.020372                    
P 17 -20922.145931  13989.236709  -7855.649026    -99.720381                    
V 17   5300.795116  -9302.983376 -29928.962972     -0.030775                    
P 18  17245.119184   6907.785277 -18640.464839    324.226949                    
V 18   6438.492899  23855.794534  14116.534128      0.022756                    
P 19   1002.590101 -18734.087164 -18758.852208   -461.559025                    
V 19  18324.662957 -15068.514597  16594.714512     -0.021455                    
P 20 -14639.884572 -20794.415050   7598.073407    197.881105                    
V 20   -398.271317 -10555.650922 -28882.569054      0.039822                    
P 21  26428.350068   3464.633331  -2186.406931   -365.826423                    
V 21   2809.893853   3970.225191  30659.142158     -0.022139                    
P 22  13898.863274  -8139.519132 -20891.514726    240.534946                    
V 22   9410.194680  25519.275610  -3808.415695      0.030607                    
P 23  -9373.897292 -12518.377961  21542.090935    -27.085278                    
V 23  18561.803652 -19848.118441  -3895.180169     -0.030617                    
P 24  14851.609428  14669.170096 -16501.220467    -29.761905                    
V 24 -20862.830628  -2074.681296 -20556.846858     -0.007124                    
P 25  16088.782802  13883.825293  15941.504817     24.708944                    
V 25   5060.822704  19711.633915 -22038.998863      0.002536                    
P 26  -9179.561122  21145.766395 -13585.100653     53.131702                    
V 26 -13179.454775   9707.412743  25527.737570     -0.121548                    
P 27  10498.550247 -22306.153970  -9809.002297    -11.569462                    
V 27  10079.987416  -7733.699457  28456.500127      0.026702                    
P 28 -14080.078630   2932.110287 -21731.191940    360.810297                    
V 28  -7444.788844 -28017.082872    889.072035      0.027873                    
P 29  16594.435089   3157.009660  20521.027015    538.311325                    
V 29 -17505.554577  19190.959226  11270.222352      0.026789                    
P 30 -24832.212433   -142.579478  -9481.782060    -23.254446                    
V 30 -10857.463841  -5759.146488  28516.097282     -0.064116                    
P 31  16540.792518  -9215.309267  18902.101075    334.085184                    
V 31  22697.997146   6292.030861 -16629.954032     -0.000917                    
P 32  -4681.717326 -26335.845997  -2372.429772   -411.304503                    
V 32   3394.438503   2297.113774 -30921.069470      0.082323                    
EOF
